[{"OBJECT_NAME":"STARLINK-31964","OBJECT_ID":"2024-100L","EPOCH":"2026-03-09T12:17:07.810944","MEAN_MOTION":15.27573524,"ECCENTRICITY":7.714e-5,"INCLINATION":42.9965,"RA_OF_ASC_NODE":126.056,"ARG_OF_PERICENTER":288.8537,"MEAN_ANOMALY":71.2231,"EPHEMERIS_TYPE":0,"CLASSIFICATION_TYPE":"U","NORAD_CAT_ID":59895,"ELEMENT_SET_NO":999,"REV_AT_EPOCH":10108,"BSTAR":-5.820817e-5,"MEAN_MOTION_DOT":-1.863e-5,"MEAN_MOTION_DDOT":0},{"OBJECT_NAME":"OBJECT D","OBJECT_ID":"2025-197D","EPOCH":"2026-03-09T23:30:56.303712","MEAN_MOTION":15.25287442,"ECCENTRICITY":0.00144425,"INCLINATION":97.4091,"RA_OF_ASC_NODE":257.3677,"ARG_OF_PERICENTER":3.398,"MEAN_ANOMALY":356.7353,"EPHEMERIS_TYPE":0,"CLASSIFICATION_TYPE":"U","NORAD_CAT_ID":65491,"ELEMENT_SET_NO":999,"REV_AT_EPOCH":2822,"BSTAR":0.00037200129,"MEAN_MOTION_DOT":9.321e-5,"MEAN_MOTION_DDOT":0}]
